{
  "norad_id": 59172,
  "name": "STARLINK-31348",
  "history": [
    {
      "epoch": "2026-04-14T15:09:16.606080Z",
      "apogee_km": 484.03032626391996,
      "perigee_km": 482.0954678929438,
      "latitude_deg": -3.125715325417063e-05,
      "longitude_deg": 147.10788413133537,
      "height_km": 482.3906384936636,
      "semi_major_axis_km": 6861.199897078432,
      "eccentricity": 0.000141,
      "inclination_deg": 43.003,
      "raan_deg": 217.2322,
      "arg_perigee_deg": 297.6688,
      "mean_anomaly_deg": 62.402,
      "mean_motion_rev_day": 15.27575391
    },
    {
      "epoch": "2026-04-15T13:07:26.053248Z",
      "apogee_km": 483.9297082674475,
      "perigee_km": 481.9098131570936,
      "latitude_deg": -8.771451895270372e-06,
      "longitude_deg": 171.49389984281956,
      "height_km": 482.7376858835005,
      "semi_major_axis_km": 6861.05676071227,
      "eccentricity": 0.0001472,
      "inclination_deg": 43.0031,
      "raan_deg": 212.0598,
      "arg_perigee_deg": 267.6831,
      "mean_anomaly_deg": 92.3852,
      "mean_motion_rev_day": 15.27623194
    },
    {
      "epoch": "2026-04-16T14:13:55.583616Z",
      "apogee_km": 484.25427078174926,
      "perigee_km": 481.75955885432177,
      "latitude_deg": 3.997213056144024e-05,
      "longitude_deg": 147.9298533936669,
      "height_km": 482.8149339881759,
      "semi_major_axis_km": 6861.143914818035,
      "eccentricity": 0.0001818,
      "inclination_deg": 43.0048,
      "raan_deg": 206.1499,
      "arg_perigee_deg": 268.6008,
      "mean_anomaly_deg": 91.4636,
      "mean_motion_rev_day": 15.27594087
    },
    {
      "epoch": "2026-04-17T15:20:26.196576Z",
      "apogee_km": 483.9707533212122,
      "perigee_km": 482.0829726959437,
      "latitude_deg": -1.119055903457631e-05,
      "longitude_deg": 124.36617674717692,
      "height_km": 482.6143836791494,
      "semi_major_axis_km": 6861.163863008578,
      "eccentricity": 0.00013757,
      "inclination_deg": 43.0024,
      "raan_deg": 200.245,
      "arg_perigee_deg": 281.5775,
      "mean_anomaly_deg": 78.4922,
      "mean_motion_rev_day": 15.27587425
    },
    {
      "epoch": "2026-04-18T13:18:37.452960Z",
      "apogee_km": 484.08470407405,
      "perigee_km": 481.8521003761671,
      "latitude_deg": 1.1092257774680217e-05,
      "longitude_deg": 148.74733196536005,
      "height_km": 482.42837832710705,
      "semi_major_axis_km": 6861.105402225108,
      "eccentricity": 0.0001627,
      "inclination_deg": 43.003,
      "raan_deg": 195.0753,
      "arg_perigee_deg": 286.5099,
      "mean_anomaly_deg": 73.5574,
      "mean_motion_rev_day": 15.27606949
    },
    {
      "epoch": "2026-04-19T12:50:57.491232Z",
      "apogee_km": 483.8493731767521,
      "perigee_km": 482.06686066537713,
      "latitude_deg": -1.9048429440462298e-05,
      "longitude_deg": 149.15559809548813,
      "height_km": 482.8055733710954,
      "semi_major_axis_km": 6861.095116921065,
      "eccentricity": 0.0001299,
      "inclination_deg": 43.0028,
      "raan_deg": 189.5338,
      "arg_perigee_deg": 265.4604,
      "mean_anomaly_deg": 94.6099,
      "mean_motion_rev_day": 15.27610384
    },
    {
      "epoch": "2026-04-20T06:06:41.290848Z",
      "apogee_km": 483.54374314924735,
      "perigee_km": 482.5296616760306,
      "latitude_deg": -2.3072039334552094e-06,
      "longitude_deg": -114.54771558993966,
      "height_km": 482.83454219149195,
      "semi_major_axis_km": 6861.173702412639,
      "eccentricity": 7.39e-05,
      "inclination_deg": 43.0025,
      "raan_deg": 185.4719,
      "arg_perigee_deg": 267.5765,
      "mean_anomaly_deg": 92.5002,
      "mean_motion_rev_day": 15.27584139
    },
    {
      "epoch": "2026-04-21T15:03:58.612608Z",
      "apogee_km": 484.28511742511364,
      "perigee_km": 481.72179535060604,
      "latitude_deg": 2.8474398719788494e-05,
      "longitude_deg": 102.021833921976,
      "height_km": 482.79623540026034,
      "semi_major_axis_km": 6861.14045638786,
      "eccentricity": 0.0001868,
      "inclination_deg": 43.0014,
      "raan_deg": 177.717,
      "arg_perigee_deg": 269.3046,
      "mean_anomaly_deg": 90.7592,
      "mean_motion_rev_day": 15.27595242
    },
    {
      "epoch": "2026-04-22T14:36:19.734336Z",
      "apogee_km": 484.0999228098226,
      "perigee_km": 481.9907953526399,
      "latitude_deg": 1.7814655976412975e-05,
      "longitude_deg": 102.4288922885213,
      "height_km": 482.76442325806937,
      "semi_major_axis_km": 6861.182359081231,
      "eccentricity": 0.0001537,
      "inclination_deg": 43.0011,
      "raan_deg": 172.1788,
      "arg_perigee_deg": 273.1461,
      "mean_anomaly_deg": 86.9215,
      "mean_motion_rev_day": 15.27581248
    },
    {
      "epoch": "2026-04-23T11:00:20.315808Z",
      "apogee_km": 484.1284935078402,
      "perigee_km": 481.7107943676501,
      "latitude_deg": 1.3867880458732395e-05,
      "longitude_deg": 150.78825865014142,
      "height_km": 482.72526963181343,
      "semi_major_axis_km": 6861.056643937745,
      "eccentricity": 0.00017619,
      "inclination_deg": 43.0015,
      "raan_deg": 167.3784,
      "arg_perigee_deg": 268.6502,
      "mean_anomaly_deg": 91.4148,
      "mean_motion_rev_day": 15.27623233
    },
    {
      "epoch": "2026-04-24T12:06:51.486048Z",
      "apogee_km": 484.7221597888747,
      "perigee_km": 481.4383812032138,
      "latitude_deg": -2.8809575219024937e-05,
      "longitude_deg": 127.22095976535094,
      "height_km": 482.717066783605,
      "semi_major_axis_km": 6861.217270496044,
      "eccentricity": 0.0002393,
      "inclination_deg": 43.0036,
      "raan_deg": 161.4722,
      "arg_perigee_deg": 274.9292,
      "mean_anomaly_deg": 85.1286,
      "mean_motion_rev_day": 15.27569589
    },
    {
      "epoch": "2026-04-25T10:05:03.869088Z",
      "apogee_km": 484.1644170354093,
      "perigee_km": 481.9441355384024,
      "latitude_deg": -1.618815436736743e-05,
      "longitude_deg": 151.5943965428901,
      "height_km": 482.81242593772146,
      "semi_major_axis_km": 6861.191276286905,
      "eccentricity": 0.0001618,
      "inclination_deg": 43.0017,
      "raan_deg": 156.2995,
      "arg_perigee_deg": 270.9767,
      "mean_anomaly_deg": 89.0899,
      "mean_motion_rev_day": 15.2757827
    },
    {
      "epoch": "2026-04-26T19:02:20.482368Z",
      "apogee_km": 483.98152941394073,
      "perigee_km": 481.9775344972877,
      "latitude_deg": 4.595840659031478e-05,
      "longitude_deg": 8.16834328358669,
      "height_km": 482.78096672597354,
      "semi_major_axis_km": 6861.116531955614,
      "eccentricity": 0.00014604,
      "inclination_deg": 43.0013,
      "raan_deg": 148.546,
      "arg_perigee_deg": 268.5961,
      "mean_anomaly_deg": 91.4724,
      "mean_motion_rev_day": 15.27603232
    },
    {
      "epoch": "2026-04-27T09:09:44.616960Z",
      "apogee_km": 484.10040177789506,
      "perigee_km": 481.9116971451167,
      "latitude_deg": 7.038192795014887e-06,
      "longitude_deg": 152.41241518288032,
      "height_km": 482.80995064420455,
      "semi_major_axis_km": 6861.143049461505,
      "eccentricity": 0.0001595,
      "inclination_deg": 43.0006,
      "raan_deg": 145.2207,
      "arg_perigee_deg": 268.5873,
      "mean_anomaly_deg": 91.4796,
      "mean_motion_rev_day": 15.27594376
    },
    {
      "epoch": "2026-04-28T18:07:02.525376Z",
      "apogee_km": 483.5113776272274,
      "perigee_km": 482.64549223933955,
      "latitude_deg": -3.6873542435477026e-05,
      "longitude_deg": 8.979838288073877,
      "height_km": 482.6541783804014,
      "semi_major_axis_km": 6861.215434933283,
      "eccentricity": 6.31e-05,
      "inclination_deg": 43.0037,
      "raan_deg": 137.4662,
      "arg_perigee_deg": 297.6118,
      "mean_anomaly_deg": 62.4669,
      "mean_motion_rev_day": 15.27570202
    },
    {
      "epoch": "2026-04-29T09:48:36.088992Z",
      "apogee_km": 484.0947668793915,
      "perigee_km": 481.9510660750866,
      "latitude_deg": 3.088737829858806e-05,
      "longitude_deg": 129.25308791893275,
      "height_km": 482.68781911801295,
      "semi_major_axis_km": 6861.159916477239,
      "eccentricity": 0.00015622,
      "inclination_deg": 43.0005,
      "raan_deg": 133.7737,
      "arg_perigee_deg": 275.9975,
      "mean_anomaly_deg": 84.0699,
      "mean_motion_rev_day": 15.27588743
    },
    {
      "epoch": "2026-04-30T07:46:47.772192Z",
      "apogee_km": 484.6448537758024,
      "perigee_km": 481.4148908589914,
      "latitude_deg": 1.4629000446883665e-05,
      "longitude_deg": 153.6323183533622,
      "height_km": 482.4185156201207,
      "semi_major_axis_km": 6861.166872317397,
      "eccentricity": 0.00023538,
      "inclination_deg": 43.0026,
      "raan_deg": 128.6039,
      "arg_perigee_deg": 283.9408,
      "mean_anomaly_deg": 76.1182,
      "mean_motion_rev_day": 15.2758642
    }
  ]
}